start=new Date('2021-12-17T00:00:00.000Z').valueOf();
sats=[{"TLE_LINE2":"2 47376  53.0552 151.9862 0002061  88.9688 271.1537 15.06402484 50350","REF_FRAME":"TEME","CLASSIFICATION_TYPE":"U","OBJECT_ID":"2021-005AD","INCLINATION":"53.0552","COUNTRY_CODE":"US","REV_AT_EPOCH":"5035","MEAN_ANOMALY":"271.1537","ELEMENT_SET_NO":"999","OBJECT_NAME":"STARLINK-2096","BSTAR":"-0.00004214300000","MEAN_MOTION":"15.06402484","SITE":"AFETR","DECAY_DATE":null,"MEAN_MOTION_DDOT":"0.0000000000000","NORAD_CAT_ID":"47376","MEAN_ELEMENT_THEORY":"SGP4","MEAN_MOTION_DOT":"-0.00000909","OBJECT_TYPE":"PAYLOAD","SEMIMAJOR_AXIS":"6925.341","RA_OF_ASC_NODE":"151.9862","PERIAPSIS":"545.779","EPOCH":"2021-12-16T21:29:58.398720","ARG_OF_PERICENTER":"88.9688","ECCENTRICITY":"0.00020610","GP_ID":"191860131","APOAPSIS":"548.633","RCS_SIZE":"LARGE","CENTER_NAME":"EARTH","TIME_SYSTEM":"UTC","PERIOD":"95.592","EPHEMERIS_TYPE":"0","TLE_LINE1":"1 47376U 21005AD  21350.89581480 -.00000909  00000-0 -42143-4 0  9997","FILE":"3242223","LAUNCH_DATE":"2021-01-20"},{"RCS_SIZE":"LARGE","APOAPSIS":"549.037","CENTER_NAME":"EARTH","TIME_SYSTEM":"UTC","PERIOD":"95.592","TLE_LINE1":"1 47377U 21005AE  21350.88109720  .00000835  00000-0  74977-4 0  9996","EPHEMERIS_TYPE":"0","FILE":"3242223","LAUNCH_DATE":"2021-01-20","PERIAPSIS":"545.368","ARG_OF_PERICENTER":"93.1132","EPOCH":"2021-12-16T21:08:46.798080","GP_ID":"191860381","ECCENTRICITY":"0.00026490","OBJECT_NAME":"STARLINK-2097","BSTAR":"0.00007497700000","SITE":"AFETR","MEAN_MOTION":"15.06403562","DECAY_DATE":null,"MEAN_MOTION_DDOT":"0.0000000000000","NORAD_CAT_ID":"47377","MEAN_ELEMENT_THEORY":"SGP4","MEAN_MOTION_DOT":"0.00000835","OBJECT_TYPE":"PAYLOAD","SEMIMAJOR_AXIS":"6925.338","RA_OF_ASC_NODE":"152.0144","REF_FRAME":"TEME","TLE_LINE2":"2 47377  53.0598 152.0144 0002649  93.1132 267.0160 15.06403562 50354","OBJECT_ID":"2021-005AE","CLASSIFICATION_TYPE":"U","INCLINATION":"53.0598","COUNTRY_CODE":"US","REV_AT_EPOCH":"5035","MEAN_ANOMALY":"267.0160","ELEMENT_SET_NO":"999"},{"INCLINATION":"53.0565","COUNTRY_CODE":"US","REF_FRAME":"TEME","TLE_LINE2":"2 47378  53.0565 112.0814 0001668 104.9731 255.1443 15.06399402 50916","OBJECT_ID":"2021-005AF","CLASSIFICATION_TYPE":"U","ELEMENT_SET_NO":"999","REV_AT_EPOCH":"5091","MEAN_ANOMALY":"255.1443","SITE":"AFETR","MEAN_MOTION":"15.06399402","DECAY_DATE":null,"MEAN_MOTION_DDOT":"0.0000000000000","OBJECT_NAME":"STARLINK-2098","BSTAR":"-0.00001301300000","SEMIMAJOR_AXIS":"6925.350","RA_OF_ASC_NODE":"112.0814","NORAD_CAT_ID":"47378","MEAN_MOTION_DOT":"-0.00000475","MEAN_ELEMENT_THEORY":"SGP4","OBJECT_TYPE":"PAYLOAD","PERIAPSIS":"546.060","ARG_OF_PERICENTER":"104.9731","EPOCH":"2021-12-16T20:58:06.868704","GP_ID":"191836846","ECCENTRICITY":"0.00016680","TIME_SYSTEM":"UTC","RCS_SIZE":"LARGE","APOAPSIS":"548.371","CENTER_NAME":"EARTH","PERIOD":"95.592","TLE_LINE1":"1 47378U 21005AF  21350.87369061 -.00000475  00000-0 -13013-4 0  9998","FILE":"3242113","EPHEMERIS_TYPE":"0","LAUNCH_DATE":"2021-01-20"},{"PERIOD":"95.591","TLE_LINE1":"1 47379U 21005AG  21350.74836153  .00001050  00000-0  89341-4 0  9991","EPHEMERIS_TYPE":"0","FILE":"3242223","LAUNCH_DATE":"2021-01-20","RCS_SIZE":"LARGE","APOAPSIS":"548.417","CENTER_NAME":"EARTH","TIME_SYSTEM":"UTC","GP_ID":"191861883","ECCENTRICITY":"0.00018060","PERIAPSIS":"545.916","ARG_OF_PERICENTER":"100.6830","EPOCH":"2021-12-16T17:57:38.436192","NORAD_CAT_ID":"47379","MEAN_ELEMENT_THEORY":"SGP4","MEAN_MOTION_DOT":"0.00001050","OBJECT_TYPE":"PAYLOAD","SEMIMAJOR_AXIS":"6925.302","RA_OF_ASC_NODE":"112.6343","OBJECT_NAME":"STARLINK-2099","BSTAR":"0.00008934100000","SITE":"AFETR","MEAN_MOTION":"15.06415310","DECAY_DATE":null,"MEAN_MOTION_DDOT":"0.0000000000000","REV_AT_EPOCH":"5089","MEAN_ANOMALY":"259.4363","ELEMENT_SET_NO":"999","TLE_LINE2":"2 47379  53.0550 112.6343 0001806 100.6830 259.4363 15.06415310 50893","REF_FRAME":"TEME","OBJECT_ID":"2021-005AG","CLASSIFICATION_TYPE":"U","INCLINATION":"53.0550","COUNTRY_CODE":"US"},{"OBJECT_TYPE":"PAYLOAD","MEAN_ELEMENT_THEORY":"SGP4","MEAN_MOTION_DOT":"0.00000498","NORAD_CAT_ID":"47380","RA_OF_ASC_NODE":"122.2247","SEMIMAJOR_AXIS":"6925.340","BSTAR":"0.00005235200000","OBJECT_NAME":"STARLINK-2100","MEAN_MOTION_DDOT":"0.0000000000000","DECAY_DATE":null,"MEAN_MOTION":"15.06402832","SITE":"AFETR","MEAN_ANOMALY":"265.4719","REV_AT_EPOCH":"5077","ELEMENT_SET_NO":"999","OBJECT_ID":"2021-005AH","CLASSIFICATION_TYPE":"U","REF_FRAME":"TEME","TLE_LINE2":"2 47380  53.0549 122.2247 0001696  94.6464 265.4719 15.06402832 50779","COUNTRY_CODE":"US","INCLINATION":"53.0549","LAUNCH_DATE":"2021-01-20","EPHEMERIS_TYPE":"0","TLE_LINE1":"1 47380U 21005AH  21350.84327915  .00000498  00000-0  52352-4 0  9992","FILE":"3242223","PERIOD":"95.592","CENTER_NAME":"EARTH","APOAPSIS":"548.379","RCS_SIZE":"LARGE","TIME_SYSTEM":"UTC","GP_ID":"191860631","ECCENTRICITY":"0.00016960","ARG_OF_PERICENTER":"94.6464","EPOCH":"2021-12-16T20:14:19.318560","PERIAPSIS":"546.030"},{"FILE":"3242223","TLE_LINE1":"1 47381U 21005AJ  21350.85109722 -.00000486  00000-0 -13743-4 0  9998","EPHEMERIS_TYPE":"0","LAUNCH_DATE":"2021-01-20","PERIOD":"95.592","TIME_SYSTEM":"UTC","APOAPSIS":"548.558","RCS_SIZE":"LARGE","CENTER_NAME":"EARTH","ECCENTRICITY":"0.00019600","GP_ID":"191860881","EPOCH":"2021-12-16T20:25:34.799808","ARG_OF_PERICENTER":"97.6614","PERIAPSIS":"545.844","SEMIMAJOR_AXIS":"6925.336","RA_OF_ASC_NODE":"127.1898","OBJECT_TYPE":"PAYLOAD","NORAD_CAT_ID":"47381","MEAN_ELEMENT_THEORY":"SGP4","MEAN_MOTION_DOT":"-0.00000486","MEAN_MOTION_DDOT":"0.0000000000000","MEAN_MOTION":"15.06404054","SITE":"AFETR","DECAY_DATE":null,"BSTAR":"-0.00001374300000","OBJECT_NAME":"STARLINK-2101","ELEMENT_SET_NO":"999","REV_AT_EPOCH":"5070","MEAN_ANOMALY":"262.4597","INCLINATION":"53.0551","COUNTRY_CODE":"US","CLASSIFICATION_TYPE":"U","OBJECT_ID":"2021-005AJ","REF_FRAME":"TEME","TLE_LINE2":"2 47381  53.0551 127.1898 0001960  97.6614 262.4597 15.06404054 50705"},{"DECAY_DATE":null,"MEAN_MOTION":"15.07399811","SITE":"AFETR","MEAN_MOTION_DDOT":"0.0000000000000","OBJECT_NAME":"STARLINK-2102","BSTAR":"0.00907490000000","RA_OF_ASC_NODE":"123.1264","SEMIMAJOR_AXIS":"6922.286","MEAN_MOTION_DOT":"0.00141582","MEAN_ELEMENT_THEORY":"SGP4","NORAD_CAT_ID":"47382","OBJECT_TYPE":"PAYLOAD","COUNTRY_CODE":"US","INCLINATION":"53.0553","TLE_LINE2":"2 47382  53.0553 123.1264 0011760 345.3321  14.7326 15.07399811 50734","REF_FRAME":"TEME","OBJECT_ID":"2021-005AK","CLASSIFICATION_TYPE":"U","ELEMENT_SET_NO":"999","MEAN_ANOMALY":"14.7326","REV_AT_EPOCH":"5073","TIME_SYSTEM":"UTC","CENTER_NAME":"EARTH","APOAPSIS":"552.292","RCS_SIZE":"LARGE","PERIOD":"95.529","LAUNCH_DATE":"2021-01-20","FILE":"3242223","TLE_LINE1":"1 47382U 21005AK  21350.63600857  .00141582  00000-0  90749-2 0  9990","EPHEMERIS_TYPE":"0","PERIAPSIS":"536.010","EPOCH":"2021-12-16T15:15:51.140448","ARG_OF_PERICENTER":"345.3321","GP_ID":"191861633","ECCENTRICITY":"0.00117600"},{"FILE":"3242223","TLE_LINE1":"1 47383U 21005AL  21350.85432518  .00000111  00000-0  26329-4 0  9999","EPHEMERIS_TYPE":"0","LAUNCH_DATE":"2021-01-20","PERIOD":"95.592","TIME_SYSTEM":"UTC","RCS_SIZE":"LARGE","APOAPSIS":"548.519","CENTER_NAME":"EARTH","ECCENTRICITY":"0.00018990","GP_ID":"191861384","ARG_OF_PERICENTER":"85.2346","EPOCH":"2021-12-16T20:30:13.695552","PERIAPSIS":"545.889","SEMIMAJOR_AXIS":"6925.339","RA_OF_ASC_NODE":"112.1668","OBJECT_TYPE":"PAYLOAD","NORAD_CAT_ID":"47383","MEAN_ELEMENT_THEORY":"SGP4","MEAN_MOTION_DOT":"0.00000111","MEAN_MOTION_DDOT":"0.0000000000000","MEAN_MOTION":"15.06403134","SITE":"AFETR","DECAY_DATE":null,"BSTAR":"0.00002632900000","OBJECT_NAME":"STARLINK-2103","ELEMENT_SET_NO":"999","REV_AT_EPOCH":"5091","MEAN_ANOMALY":"274.8860","INCLINATION":"53.0549","COUNTRY_CODE":"US","CLASSIFICATION_TYPE":"U","OBJECT_ID":"2021-005AL","REF_FRAME":"TEME","TLE_LINE2":"2 47383  53.0549 112.1668 0001899  85.2346 274.8860 15.06403134 50910"},{"OBJECT_ID":"2021-005AM","CLASSIFICATION_TYPE":"U","TLE_LINE2":"2 47384  53.0550 122.4243 0001976  96.3302 263.7912 15.06410022 51377","REF_FRAME":"TEME","INCLINATION":"53.0550","COUNTRY_CODE":"US","REV_AT_EPOCH":"5137","MEAN_ANOMALY":"263.7912","ELEMENT_SET_NO":"999","BSTAR":"0.00011147000000","OBJECT_NAME":"STARLINK-2104","MEAN_MOTION_DDOT":"0.0000000000000","SITE":"AFETR","MEAN_MOTION":"15.06410022","DECAY_DATE":null,"OBJECT_TYPE":"PAYLOAD","NORAD_CAT_ID":"47384","MEAN_ELEMENT_THEORY":"SGP4","MEAN_MOTION_DOT":"0.00001379","SEMIMAJOR_AXIS":"6925.318","RA_OF_ASC_NODE":"122.4243","EPOCH":"2021-12-16T19:09:17.293248","ARG_OF_PERICENTER":"96.3302","PERIAPSIS":"545.814","ECCENTRICITY":"0.00019760","GP_ID":"191836250","APOAPSIS":"548.551","RCS_SIZE":"LARGE","CENTER_NAME":"EARTH","TIME_SYSTEM":"UTC","EPHEMERIS_TYPE":"0","TLE_LINE1":"1 47384U 21005AM  21350.79811682  .00001379  00000-0  11147-3 0  9994","FILE":"3242092","LAUNCH_DATE":"2021-01-20","PERIOD":"95.592"},{"SEMIMAJOR_AXIS":"6925.335","RA_OF_ASC_NODE":"122.6312","OBJECT_TYPE":"PAYLOAD","NORAD_CAT_ID":"47385","MEAN_MOTION_DOT":"0.00001316","MEAN_ELEMENT_THEORY":"SGP4","MEAN_MOTION_DDOT":"0.0000000000000","SITE":"AFETR","MEAN_MOTION":"15.06404482","DECAY_DATE":null,"BSTAR":"0.00010724000000","OBJECT_NAME":"STARLINK-2105","ELEMENT_SET_NO":"999","REV_AT_EPOCH":"5136","MEAN_ANOMALY":"259.0689","INCLINATION":"53.0546","COUNTRY_CODE":"US","CLASSIFICATION_TYPE":"U","OBJECT_ID":"2021-005AN","TLE_LINE2":"2 47385  53.0546 122.6312 0001822 101.0505 259.0689 15.06404482 51362","REF_FRAME":"TEME","EPHEMERIS_TYPE":"0","TLE_LINE1":"1 47385U 21005AN  21350.75112731  .00001316  00000-0  10724-3 0  9991","FILE":"3242093","LAUNCH_DATE":"2021-01-20","PERIOD":"95.592","TIME_SYSTEM":"UTC","APOAPSIS":"548.462","RCS_SIZE":"LARGE","CENTER_NAME":"EARTH","ECCENTRICITY":"0.00018220","GP_ID":"191836263","ARG_OF_PERICENTER":"101.0505","EPOCH":"2021-12-16T18:01:37.399584","PERIAPSIS":"545.938"}];
